[{"OBJECT_NAME":"SL-8 R/B","OBJECT_ID":"1988-053B","EPOCH":"2026-03-19T07:27:31.369536","MEAN_MOTION":14.38922046,"ECCENTRICITY":0.00215446,"INCLINATION":74.045,"RA_OF_ASC_NODE":94.7303,"ARG_OF_PERICENTER":272.7718,"MEAN_ANOMALY":98.3894,"EPHEMERIS_TYPE":0,"CLASSIFICATION_TYPE":"U","NORAD_CAT_ID":19257,"ELEMENT_SET_NO":999,"REV_AT_EPOCH":97798,"BSTAR":9.8854909e-5,"MEAN_MOTION_DOT":2.79e-6,"MEAN_MOTION_DDOT":0},{"OBJECT_NAME":"COSMOS 1975","OBJECT_ID":"1988-093A","EPOCH":"2026-03-19T03:41:55.663008","MEAN_MOTION":15.28193761,"ECCENTRICITY":0.00129379,"INCLINATION":82.5163,"RA_OF_ASC_NODE":108.1817,"ARG_OF_PERICENTER":132.293,"MEAN_ANOMALY":227.9408,"EPHEMERIS_TYPE":0,"CLASSIFICATION_TYPE":"U","NORAD_CAT_ID":19573,"ELEMENT_SET_NO":999,"REV_AT_EPOCH":2085,"BSTAR":0.0002033763,"MEAN_MOTION_DOT":5.633e-5,"MEAN_MOTION_DDOT":0},{"OBJECT_NAME":"SL-14 R/B","OBJECT_ID":"1988-093B","EPOCH":"2026-03-19T19:58:35.103936","MEAN_MOTION":14.85668504,"ECCENTRICITY":0.0020927,"INCLINATION":82.5325,"RA_OF_ASC_NODE":32.5229,"ARG_OF_PERICENTER":9.1191,"MEAN_ANOMALY":51.977,"EPHEMERIS_TYPE":0,"CLASSIFICATION_TYPE":"U","NORAD_CAT_ID":19574,"ELEMENT_SET_NO":999,"REV_AT_EPOCH":252,"BSTAR":5.5868e-5,"MEAN_MOTION_DOT":5.1e-6,"MEAN_MOTION_DDOT":0},{"OBJECT_NAME":"SL-16 R/B","OBJECT_ID":"1988-102B","EPOCH":"2026-03-19T12:16:12.704160","MEAN_MOTION":14.16155997,"ECCENTRICITY":0.0014661,"INCLINATION":70.9989,"RA_OF_ASC_NODE":130.8325,"ARG_OF_PERICENTER":346.2813,"MEAN_ANOMALY":13.7909,"EPHEMERIS_TYPE":0,"CLASSIFICATION_TYPE":"U","NORAD_CAT_ID":19650,"ELEMENT_SET_NO":999,"REV_AT_EPOCH":92828,"BSTAR":-1.6673e-5,"MEAN_MOTION_DOT":-8.1e-7,"MEAN_MOTION_DDOT":0},{"OBJECT_NAME":"INTERCOSMOS 24","OBJECT_ID":"1989-080A","EPOCH":"2026-03-19T02:18:05.840352","MEAN_MOTION":12.59571281,"ECCENTRICITY":0.11866737,"INCLINATION":82.6016,"RA_OF_ASC_NODE":98.2774,"ARG_OF_PERICENTER":270.965,"MEAN_ANOMALY":75.6003,"EPHEMERIS_TYPE":0,"CLASSIFICATION_TYPE":"U","NORAD_CAT_ID":20261,"ELEMENT_SET_NO":999,"REV_AT_EPOCH":66798,"BSTAR":0.00015880647,"MEAN_MOTION_DOT":5.34e-6,"MEAN_MOTION_DDOT":0},{"OBJECT_NAME":"SL-14 R/B","OBJECT_ID":"1989-080C","EPOCH":"2026-03-19T17:14:21.323040","MEAN_MOTION":12.50504355,"ECCENTRICITY":0.1230796,"INCLINATION":82.5966,"RA_OF_ASC_NODE":166.7508,"ARG_OF_PERICENTER":161.8365,"MEAN_ANOMALY":203.1088,"EPHEMERIS_TYPE":0,"CLASSIFICATION_TYPE":"U","NORAD_CAT_ID":20262,"ELEMENT_SET_NO":999,"REV_AT_EPOCH":66140,"BSTAR":0.00011193,"MEAN_MOTION_DOT":3.95e-6,"MEAN_MOTION_DDOT":0},{"OBJECT_NAME":"DELTA 1 R/B","OBJECT_ID":"1989-089B","EPOCH":"2026-03-19T06:39:30.440160","MEAN_MOTION":14.50671098,"ECCENTRICITY":0.0070721,"INCLINATION":97.0698,"RA_OF_ASC_NODE":284.1907,"ARG_OF_PERICENTER":92.2696,"MEAN_ANOMALY":268.6602,"EPHEMERIS_TYPE":0,"CLASSIFICATION_TYPE":"U","NORAD_CAT_ID":20323,"ELEMENT_SET_NO":999,"REV_AT_EPOCH":89712,"BSTAR":9.0517633e-5,"MEAN_MOTION_DOT":3.32e-6,"MEAN_MOTION_DDOT":0},{"OBJECT_NAME":"ARIANE 40 R/B","OBJECT_ID":"1990-005H","EPOCH":"2026-03-19T18:01:03.694080","MEAN_MOTION":14.39876682,"ECCENTRICITY":0.0010487,"INCLINATION":98.3061,"RA_OF_ASC_NODE":139.1114,"ARG_OF_PERICENTER":168.0873,"MEAN_ANOMALY":192.0565,"EPHEMERIS_TYPE":0,"CLASSIFICATION_TYPE":"U","NORAD_CAT_ID":20443,"ELEMENT_SET_NO":999,"REV_AT_EPOCH":89425,"BSTAR":7.868e-5,"MEAN_MOTION_DOT":2.05e-6,"MEAN_MOTION_DDOT":0},{"OBJECT_NAME":"DELTA 2 R/B(1)","OBJECT_ID":"1990-008B","EPOCH":"2026-03-18T19:16:07.447872","MEAN_MOTION":15.57130229,"ECCENTRICITY":0.00820237,"INCLINATION":35.6024,"RA_OF_ASC_NODE":114.9908,"ARG_OF_PERICENTER":343.0931,"MEAN_ANOMALY":16.7077,"EPHEMERIS_TYPE":0,"CLASSIFICATION_TYPE":"U","NORAD_CAT_ID":20453,"ELEMENT_SET_NO":999,"REV_AT_EPOCH":92755,"BSTAR":0.00054577361,"MEAN_MOTION_DOT":0.00048118,"MEAN_MOTION_DDOT":0},{"OBJECT_NAME":"COSMOS 2058","OBJECT_ID":"1990-010A","EPOCH":"2026-03-19T20:15:23.596704","MEAN_MOTION":15.11406035,"ECCENTRICITY":0.0007978,"INCLINATION":82.4676,"RA_OF_ASC_NODE":37.4212,"ARG_OF_PERICENTER":308.4152,"MEAN_ANOMALY":51.6361,"EPHEMERIS_TYPE":0,"CLASSIFICATION_TYPE":"U","NORAD_CAT_ID":20465,"ELEMENT_SET_NO":999,"REV_AT_EPOCH":94377,"BSTAR":0.00021191,"MEAN_MOTION_DOT":3.608e-5,"MEAN_MOTION_DDOT":0},{"OBJECT_NAME":"SL-14 R/B","OBJECT_ID":"1990-010B","EPOCH":"2026-03-19T20:54:40.679424","MEAN_MOTION":14.83577729,"ECCENTRICITY":0.0018328,"INCLINATION":82.4987,"RA_OF_ASC_NODE":257.8218,"ARG_OF_PERICENTER":266.12,"MEAN_ANOMALY":93.7919,"EPHEMERIS_TYPE":0,"CLASSIFICATION_TYPE":"U","NORAD_CAT_ID":20466,"ELEMENT_SET_NO":999,"REV_AT_EPOCH":92999,"BSTAR":4.5609e-5,"MEAN_MOTION_DOT":4.0e-6,"MEAN_MOTION_DDOT":0},{"OBJECT_NAME":"SL-14 R/B","OBJECT_ID":"1990-018B","EPOCH":"2026-03-19T19:57:13.776480","MEAN_MOTION":14.82155178,"ECCENTRICITY":0.0017456,"INCLINATION":82.5221,"RA_OF_ASC_NODE":213.6111,"ARG_OF_PERICENTER":61.3004,"MEAN_ANOMALY":298.9962,"EPHEMERIS_TYPE":0,"CLASSIFICATION_TYPE":"U","NORAD_CAT_ID":20511,"ELEMENT_SET_NO":999,"REV_AT_EPOCH":92408,"BSTAR":5.0161e-5,"MEAN_MOTION_DOT":4.24e-6,"MEAN_MOTION_DDOT":0},{"OBJECT_NAME":"HST","OBJECT_ID":"1990-037B","EPOCH":"2026-03-19T00:17:19.342752","MEAN_MOTION":15.29626908,"ECCENTRICITY":0.0001574,"INCLINATION":28.4725,"RA_OF_ASC_NODE":336.3997,"ARG_OF_PERICENTER":225.3944,"MEAN_ANOMALY":134.6524,"EPHEMERIS_TYPE":0,"CLASSIFICATION_TYPE":"U","NORAD_CAT_ID":20580,"ELEMENT_SET_NO":999,"REV_AT_EPOCH":77474,"BSTAR":0.00021508903,"MEAN_MOTION_DOT":6.585e-5,"MEAN_MOTION_DDOT":0},{"OBJECT_NAME":"SL-16 R/B","OBJECT_ID":"1990-046B","EPOCH":"2026-03-19T19:20:49.643232","MEAN_MOTION":14.15012018,"ECCENTRICITY":0.0016212,"INCLINATION":70.9954,"RA_OF_ASC_NODE":276.6662,"ARG_OF_PERICENTER":286.136,"MEAN_ANOMALY":73.7978,"EPHEMERIS_TYPE":0,"CLASSIFICATION_TYPE":"U","NORAD_CAT_ID":20625,"ELEMENT_SET_NO":999,"REV_AT_EPOCH":84982,"BSTAR":6.094e-5,"MEAN_MOTION_DOT":7.0e-7,"MEAN_MOTION_DDOT":0},{"OBJECT_NAME":"COSMOS 2084","OBJECT_ID":"1990-055A","EPOCH":"2026-03-19T19:36:07.914528","MEAN_MOTION":15.05703513,"ECCENTRICITY":0.0015539,"INCLINATION":62.789,"RA_OF_ASC_NODE":301.037,"ARG_OF_PERICENTER":192.8144,"MEAN_ANOMALY":167.2563,"EPHEMERIS_TYPE":0,"CLASSIFICATION_TYPE":"U","NORAD_CAT_ID":20663,"ELEMENT_SET_NO":999,"REV_AT_EPOCH":93784,"BSTAR":0.0001405,"MEAN_MOTION_DOT":1.843e-5,"MEAN_MOTION_DDOT":0},{"OBJECT_NAME":"SL-6 R/B(2)","OBJECT_ID":"1990-055D","EPOCH":"2026-03-19T19:31:06.838176","MEAN_MOTION":15.03641989,"ECCENTRICITY":0.0026453,"INCLINATION":62.7827,"RA_OF_ASC_NODE":219.4212,"ARG_OF_PERICENTER":349.423,"MEAN_ANOMALY":10.631,"EPHEMERIS_TYPE":0,"CLASSIFICATION_TYPE":"U","NORAD_CAT_ID":20666,"ELEMENT_SET_NO":999,"REV_AT_EPOCH":93971,"BSTAR":0.00014531,"MEAN_MOTION_DOT":1.81e-5,"MEAN_MOTION_DDOT":0},{"OBJECT_NAME":"SL-8 R/B","OBJECT_ID":"1990-078B","EPOCH":"2026-03-19T20:31:45.462720","MEAN_MOTION":14.89369883,"ECCENTRICITY":0.0360168,"INCLINATION":82.9004,"RA_OF_ASC_NODE":242.164,"ARG_OF_PERICENTER":339.7673,"MEAN_ANOMALY":18.9565,"EPHEMERIS_TYPE":0,"CLASSIFICATION_TYPE":"U","NORAD_CAT_ID":20775,"ELEMENT_SET_NO":999,"REV_AT_EPOCH":81081,"BSTAR":0.00035032,"MEAN_MOTION_DOT":0.00011862,"MEAN_MOTION_DDOT":0}]
