SL-8 R/B                
1 19257U 88053B   26078.31077974  .00000279  00000+0  98855-4 0  9995
2 19257  74.0450  94.7303 0021544 272.7718  98.3894 14.38922046977982
COSMOS 1975             
1 19573U 88093A   26078.15411647  .00005633  00000+0  20338-3 0  9990
2 19573  82.5163 108.1817 0012937 132.2930 227.9408 15.28193761 20850
SL-14 R/B               
1 19574U 88093B   26078.83235074  .00000510  00000+0  55868-4 0  9990
2 19574  82.5325  32.5229 0020927   9.1191  51.9770 14.85668504  2522
SL-16 R/B               
1 19650U 88102B   26078.51125815 -.00000081  00000+0 -16673-4 0  9998
2 19650  70.9989 130.8325 0014661 346.2813  13.7909 14.16155997928288
INTERCOSMOS 24          
1 20261U 89080A   26078.09590093  .00000534  00000+0  15881-3 0  9991
2 20261  82.6016  98.2774 1186673 270.9650  75.6003 12.59571281667982
SL-14 R/B               
1 20262U 89080C   26078.71830235  .00000395  00000+0  11193-3 0  9993
2 20262  82.5966 166.7508 1230796 161.8365 203.1088 12.50504355661400
DELTA 1 R/B             
1 20323U 89089B   26078.27743565  .00000332  00000+0  90518-4 0  9990
2 20323  97.0698 284.1907 0070721  92.2696 268.6602 14.50671098897121
ARIANE 40 R/B           
1 20443U 90005H   26078.75073720  .00000205  00000+0  78680-4 0  9990
2 20443  98.3061 139.1114 0010487 168.0873 192.0565 14.39876682894255
DELTA 2 R/B(1)          
1 20453U 90008B   26077.80286398  .00048118  00000+0  54577-3 0  9999
2 20453  35.6024 114.9908 0082023 343.0931  16.7077 15.57130229927557
COSMOS 2058             
1 20465U 90010A   26078.84402311  .00003608  00000+0  21191-3 0  9996
2 20465  82.4676  37.4212 0007978 308.4152  51.6361 15.11406035943773
SL-14 R/B               
1 20466U 90010B   26078.87130416  .00000400  00000+0  45609-4 0  9992
2 20466  82.4987 257.8218 0018328 266.1200  93.7919 14.83577729929999
SL-14 R/B               
1 20511U 90018B   26078.83140945  .00000424  00000+0  50161-4 0  9990
2 20511  82.5221 213.6111 0017456  61.3004 298.9962 14.82155178924083
HST                     
1 20580U 90037B   26078.01202943  .00006585  00000+0  21509-3 0  9991
2 20580  28.4725 336.3997 0001574 225.3944 134.6524 15.29626908774743
SL-16 R/B               
1 20625U 90046B   26078.80613013  .00000070  00000+0  60940-4 0  9998
2 20625  70.9954 276.6662 0016212 286.1360  73.7978 14.15012018849829
COSMOS 2084             
1 20663U 90055A   26078.81675827  .00001843  00000+0  14050-3 0  9991
2 20663  62.7890 301.0370 0015539 192.8144 167.2563 15.05703513937848
SL-6 R/B(2)             
1 20666U 90055D   26078.81327359  .00001810  00000+0  14531-3 0  9996
2 20666  62.7827 219.4212 0026453 349.4230  10.6310 15.03641989939716
SL-8 R/B                
1 20775U 90078B   26078.85538730  .00011862  00000+0  35032-3 0  9990
2 20775  82.9004 242.1640 0360168 339.7673  18.9565 14.89369883810818
